COMMENT,ORIGINATOR,NORAD_CAT_ID,OBJECT_NAME,OBJECT_TYPE,CLASSIFICATION_TYPE,INTLDES,EPOCH,EPOCH_MICROSECONDS,MEAN_MOTION,ECCENTRICITY,INCLINATION,RA_OF_ASC_NODE,ARG_OF_PERICENTER,MEAN_ANOMALY,EPHEMERIS_TYPE,ELEMENT_SET_NO,REV_AT_EPOCH,BSTAR,MEAN_MOTION_DOT,MEAN_MOTION_DDOT,FILE,TLE_LINE0,TLE_LINE1,TLE_LINE2,OBJECT_ID,OBJECT_NUMBER,SEMIMAJOR_AXIS,PERIOD,APOGEE,PERIGEE,DECAYED
GENERATED VIA SPACETRACK.ORG API,18 SPCS,51976,STARLINK-3663,PAYLOAD,U,22025W,2024-01-21 00:22:40,209888,15.08851065,0.0001738,53.217,294.5483,131.5947,228.5195,0,999,10351,0.00043808,6.693e-05,0.0,4167913,0 STARLINK-3663,1 51976U 22025W   24021.01574317  .00006693  00000-0  43808-3 0  9996,2 51976  53.2170 294.5483 0001738 131.5947 228.5195 15.08851065103513,2022-025W,51976,6917.847,95.437,540.914,538.509,0
GENERATED VIA SPACETRACK.ORG API,18 SPCS,51976,STARLINK-3663,PAYLOAD,U,22025W,2024-01-21 22:38:04,316928,15.08846805,0.0001499,53.2178,290.3894,90.7609,269.3554,0,999,10365,0.00030129,4.511e-05,0.0,4168132,0 STARLINK-3663,1 51976U 22025W   24021.94310552  .00004511  00000-0  30129-3 0  9996,2 51976  53.2178 290.3894 0001499  90.7609 269.3554 15.08846805103659,2022-025W,51976,6917.86,95.437,540.762,538.688,0
GENERATED VIA SPACETRACK.ORG API,18 SPCS,51976,STARLINK-3663,PAYLOAD,U,22025W,2024-01-22 00:13:27,145344,15.08857816,0.0001764,53.2176,290.0924,119.4884,240.6285,0,999,10477,0.00055308,8.529e-05,0.0,4168419,0 STARLINK-3663,1 51976U 22025W   24022.00934196  .00008529  00000-0  55308-3 0  9999,2 51976  53.2176 290.0924 0001764 119.4884 240.6285 15.08857816104778,2022-025W,51976,6917.826,95.436,540.911,538.471,0
GENERATED VIA SPACETRACK.ORG API,18 SPCS,51976,STARLINK-3663,PAYLOAD,U,22025W,2024-01-22 00:13:27,145344,15.08857816,0.0001764,53.2176,290.0924,119.4884,240.6285,0,999,10366,0.00055308,8.529e-05,0.0,4168698,0 STARLINK-3663,1 51976U 22025W   24022.00934196  .00008529  00000-0  55308-3 0  9999,2 51976  53.2176 290.0924 0001764 119.4884 240.6285 15.08857816103665,2022-025W,51976,6917.826,95.436,540.911,538.471,0
GENERATED VIA SPACETRACK.ORG API,18 SPCS,51976,STARLINK-3663,PAYLOAD,U,22025W,2024-01-22 22:28:51,7872,15.08842212,0.0002849,53.2178,285.9264,153.8492,206.2645,0,999,10380,0.00019194,2.768e-05,0.0,4168971,0 STARLINK-3663,1 51976U 22025W   24022.93670148  .00002768  00000-0  19194-3 0  9997,2 51976  53.2178 285.9264 0002849 153.8492 206.2645 15.08842212103807,2022-025W,51976,6917.874,95.437,541.71,537.768,0
GENERATED VIA SPACETRACK.ORG API,18 SPCS,51976,STARLINK-3663,PAYLOAD,U,22025W,2024-01-23 00:04:14,378016,15.08847401,0.0001548,53.2174,285.6341,131.4675,228.645,0,999,10492,0.00028763,4.294e-05,0.0,4169233,0 STARLINK-3663,1 51976U 22025W   24023.00294419  .00004294  00000-0  28763-3 0  9997,2 51976  53.2174 285.6341 0001548 131.4675 228.6450 15.08847401104927,2022-025W,51976,6917.858,95.437,540.794,538.652,0
GENERATED VIA SPACETRACK.ORG API,18 SPCS,51976,STARLINK-3663,PAYLOAD,U,22025W,2024-01-23 00:04:14,378016,15.08847401,0.0001548,53.2174,285.6341,131.4675,228.645,0,999,10381,0.00028763,4.294e-05,0.0,4169493,0 STARLINK-3663,1 51976U 22025W   24023.00294419  .00004294  00000-0  28763-3 0  9997,2 51976  53.2174 285.6341 0001548 131.4675 228.6450 15.08847401103814,2022-025W,51976,6917.858,95.437,540.794,538.652,0
GENERATED VIA SPACETRACK.ORG API,18 SPCS,51976,STARLINK-3663,PAYLOAD,U,22025W,2024-01-23 22:19:38,264736,15.08848544,0.0001641,53.2181,281.471,120.0117,240.1038,0,999,10395,0.0002069,3.007e-05,0.0,4169695,0 STARLINK-3663,1 51976U 22025W   24023.93030399  .00003007  00000-0  20690-3 0  9996,2 51976  53.2181 281.4710 0001641 120.0117 240.1038 15.08848544103950,2022-025W,51976,6917.854,95.437,540.854,538.584,0
GENERATED VIA SPACETRACK.ORG API,18 SPCS,51976,STARLINK-3663,PAYLOAD,U,22025W,2024-01-23 22:19:38,264736,15.08848544,0.0001641,53.2181,281.471,120.0117,240.1038,0,999,10506,0.0002069,3.007e-05,0.0,4169999,0 STARLINK-3663,1 51976U 22025W   24023.93030399  .00003007  00000-0  20690-3 0  9996,2 51976  53.2181 281.4710 0001641 120.0117 240.1038 15.08848544105064,2022-025W,51976,6917.854,95.437,540.854,538.584,0
GENERATED VIA SPACETRACK.ORG API,18 SPCS,51976,STARLINK-3663,PAYLOAD,U,22025W,2024-01-24 20:35:02,512608,15.08840341,0.0001497,53.2185,277.311,113.2735,246.8415,0,999,10520,5.8419e-05,6.42e-06,0.0,4170560,0 STARLINK-3663,1 51976U 22025W   24024.85766797  .00000642  00000-0  58419-4 0  9999,2 51976  53.2185 277.3110 0001497 113.2735 246.8415 15.08840341105200,2022-025W,51976,6917.879,95.438,540.78,538.709,0
GENERATED VIA SPACETRACK.ORG API,18 SPCS,51976,STARLINK-3663,PAYLOAD,U,22025W,2024-01-24 22:10:25,658112,15.08838775,0.0001413,53.2179,277.0119,108.2255,251.8891,0,999,10410,1.4862e-05,-5.1e-07,0.0,4170567,0 STARLINK-3663,1 51976U 22025W   24024.92390808 -.00000051  00000-0  14862-4 0  9992,2 51976  53.2179 277.0119 0001413 108.2255 251.8891 15.08838775104108,2022-025W,51976,6917.884,95.438,540.727,538.772,0
GENERATED VIA SPACETRACK.ORG API,18 SPCS,51976,STARLINK-3663,PAYLOAD,U,22025W,2024-01-25 20:25:50,282688,15.08831907,0.0001438,53.2179,272.8524,105.5543,254.5608,0,999,10535,1.6282e-05,-2.9e-07,0.0,4171350,0 STARLINK-3663,1 51976U 22025W   24025.85127642 -.00000029  00000-0  16282-4 0  9992,2 51976  53.2179 272.8524 0001438 105.5543 254.5608 15.08831907105352,2022-025W,51976,6917.905,95.438,540.765,538.775,0
GENERATED VIA SPACETRACK.ORG API,18 SPCS,51976,STARLINK-3663,PAYLOAD,U,22025W,2024-01-25 22:01:13,378080,15.08831935,0.0001362,53.2166,272.5472,95.5791,264.5356,0,999,10425,6.2661e-06,-1.88e-06,0.0,4171361,0 STARLINK-3663,1 51976U 22025W   24025.91751595 -.00000188  00000-0  62661-5 0  9998,2 51976  53.2166 272.5472 0001362  95.5791 264.5356 15.08831935104256,2022-025W,51976,6917.905,95.438,540.712,538.828,0
GENERATED VIA SPACETRACK.ORG API,18 SPCS,51976,STARLINK-3663,PAYLOAD,U,22025W,2024-01-26 23:27:22,928544,15.08846332,0.0001291,53.2169,267.7917,90.6235,269.4906,0,999,10552,0.00027013,4.015e-05,0.0,4172340,0 STARLINK-3663,1 51976U 22025W   24026.97734871  .00004015  00000-0  27013-3 0  9995,2 51976  53.2169 267.7917 0001291  90.6235 269.4906 15.08846332105522,2022-025W,51976,6917.861,95.437,540.619,538.833,0
GENERATED VIA SPACETRACK.ORG API,18 SPCS,51976,STARLINK-3663,PAYLOAD,U,22025W,2024-01-26 23:27:22,928544,15.08846332,0.0001291,53.2169,267.7917,90.6235,269.4906,0,999,10441,0.00027013,4.015e-05,0.0,4172745,0 STARLINK-3663,1 51976U 22025W   24026.97734871  .00004015  00000-0  27013-3 0  9995,2 51976  53.2169 267.7917 0001291  90.6235 269.4906 15.08846332104419,2022-025W,51976,6917.861,95.437,540.619,538.833,0
GENERATED VIA SPACETRACK.ORG API,18 SPCS,51976,STARLINK-3663,PAYLOAD,U,22025W,2024-01-27 20:07:24,843936,15.08827574,0.0001919,53.2163,263.9271,64.3426,295.7764,0,999,10565,0.00061117,9.449e-05,0.0,4172960,0 STARLINK-3663,1 51976U 22025W   24027.83848199  .00009449  00000-0  61117-3 0  9999,2 51976  53.2163 263.9271 0001919  64.3426 295.7764 15.08827574105659,2022-025W,51976,6917.918,95.438,541.111,538.456,0
GENERATED VIA SPACETRACK.ORG API,18 SPCS,51976,STARLINK-3663,PAYLOAD,U,22025W,2024-01-27 21:42:47,753568,15.08831118,0.0001779,53.2167,263.6303,63.2842,296.8333,0,999,10455,0.00043489,6.638e-05,0.0,4172992,0 STARLINK-3663,1 51976U 22025W   24027.90471937  .00006638  00000-0  43489-3 0  9998,2 51976  53.2167 263.6303 0001779  63.2842 296.8333 15.08831118104551,2022-025W,51976,6917.908,95.438,541.003,538.542,0
GENERATED VIA SPACETRACK.ORG API,18 SPCS,51976,STARLINK-3663,PAYLOAD,U,22025W,2024-01-28 00:53:33,707616,15.08837045,0.000171,53.2178,263.031,61.7095,298.4069,0,999,10457,0.00023681,3.483e-05,0.0,4173554,0 STARLINK-3663,1 51976U 22025W   24028.03719569  .00003483  00000-0  23681-3 0  9996,2 51976  53.2178 263.0310 0001710  61.7095 298.4069 15.08837045104574,2022-025W,51976,6917.889,95.438,540.937,538.571,0
GENERATED VIA SPACETRACK.ORG API,18 SPCS,51976,STARLINK-3663,PAYLOAD,U,22025W,2024-01-28 21:33:34,578432,15.08841849,0.000204,53.2187,259.1598,58.8345,301.2847,0,999,10470,1.1108e-06,-2.71e-06,0.0,4173840,0 STARLINK-3663,1 51976U 22025W   24028.89831688 -.00000271  00000-0  11108-5 0  9993,2 51976  53.2187 259.1598 0002040  58.8345 301.2847 15.08841849104709,2022-025W,51976,6917.875,95.437,541.151,538.328,0
GENERATED VIA SPACETRACK.ORG API,18 SPCS,51976,STARLINK-3663,PAYLOAD,U,22025W,2024-01-28 21:33:34,578432,15.08841849,0.000204,53.2187,259.1598,58.8345,301.2847,0,999,10581,1.1108e-06,-2.71e-06,0.0,4174034,0 STARLINK-3663,1 51976U 22025W   24028.89831688 -.00000271  00000-0  11108-5 0  9993,2 51976  53.2187 259.1598 0002040  58.8345 301.2847 15.08841849105812,2022-025W,51976,6917.875,95.437,541.151,538.328,0
GENERATED VIA SPACETRACK.ORG API,18 SPCS,51976,STARLINK-3663,PAYLOAD,U,22025W,2024-01-30 00:35:07,211328,15.08844793,0.0001677,53.2177,254.1045,72.5728,287.5448,0,999,10598,9.5859e-05,1.238e-05,0.0,4174841,0 STARLINK-3663,1 51976U 22025W   24030.02438902  .00001238  00000-0  95859-4 0  9990,2 51976  53.2177 254.1045 0001677  72.5728 287.5448 15.08844793105988,2022-025W,51976,6917.866,95.437,540.891,538.571,0
GENERATED VIA SPACETRACK.ORG API,18 SPCS,51976,STARLINK-3663,PAYLOAD,U,22025W,2024-01-30 00:35:07,211328,15.08844793,0.0001677,53.2177,254.1045,72.5728,287.5448,0,999,10487,9.5859e-05,1.238e-05,0.0,4175201,0 STARLINK-3663,1 51976U 22025W   24030.02438902  .00001238  00000-0  95859-4 0  9990,2 51976  53.2177 254.1045 0001677  72.5728 287.5448 15.08844793104875,2022-025W,51976,6917.866,95.437,540.891,538.571,0
GENERATED VIA SPACETRACK.ORG API,18 SPCS,51976,STARLINK-3663,PAYLOAD,U,22025W,2024-01-30 19:39:44,644608,15.0884208,0.0001725,53.2167,250.5342,138.9188,221.1934,0,999,10499,4.7056e-05,4.61e-06,0.0,4175464,0 STARLINK-3663,1 51976U 22025W   24030.81926672  .00000461  00000-0  47056-4 0  9996,2 51976  53.2167 250.5342 0001725 138.9188 221.1934 15.08842080104999,2022-025W,51976,6917.874,95.437,540.932,538.546,0
